{"type": "FeatureCollection", "features": [ {"type": "Feature", "properties": {"norad_id": 39574, "name": "GPM-CORE", "group": "resource", "lat": 4.200600444126051, "lon": -124.3677957497358, "alt_km": 432.63932654397286, "timestamp": "2025-12-06T11:28:10.686220+00:00", "meta": {"OBJECT_NAME": "GPM-CORE", "OBJECT_ID": "2014-009C", "EPOCH": "2025-12-05T23:01:26.536224", "MEAN_MOTION": 15.45304473, "ECCENTRICITY": 0.0010545, "INCLINATION": 64.9747, "RA_OF_ASC_NODE": 235.4035, "ARG_OF_PERICENTER": 269.2001, "MEAN_ANOMALY": 90.7932, "EPHEMERIS_TYPE": 0, "CLASSIFICATION_TYPE": "U", "NORAD_CAT_ID": 39574, "ELEMENT_SET_NO": 999, "REV_AT_EPOCH": 66796, "BSTAR": 0.00045335095, "MEAN_MOTION_DOT": 0.00021577, "MEAN_MOTION_DDOT": 0}, "tle": {"line1": "1 39574U 14009C   25339.95933491  .00021577  00000+0  45335-3 0  9991", "line2": "2 39574  64.9747 235.4035 0010545 269.2001  90.7932 15.45304473667964"}}, "geometry": {"type": "Point", "coordinates": [-124.3677957497358, 4.200600444126051]}}, {"type": "Feature", "properties": {"norad_id": 39634, "name": "SENTINEL-1A", "group": "resource", "lat": 9.070437798631584, "lon": -15.504042623748884, "alt_km": 697.3066990151037, "timestamp": "2025-12-06T11:28:10.686231+00:00", "meta": {"OBJECT_NAME": "SENTINEL-1A", "OBJECT_ID": "2014-016A", "EPOCH": "2025-12-05T23:54:28.052064", "MEAN_MOTION": 14.59203137, "ECCENTRICITY": 0.00012402, "INCLINATION": 98.1803, "RA_OF_ASC_NODE": 345.3372, "ARG_OF_PERICENTER": 89.7359, "MEAN_ANOMALY": 270.3982, "EPHEMERIS_TYPE": 0, "CLASSIFICATION_TYPE": "U", "NORAD_CAT_ID": 39634, "ELEMENT_SET_NO": 999, "REV_AT_EPOCH": 62184, "BSTAR": 8.4811579e-05, "MEAN_MOTION_DOT": 3.54e-06, "MEAN_MOTION_DDOT": 0}, "tle": {"line1": "1 39634U 14016A   25339.99615801  .00000354  00000+0  84812-4 0  9996", "line2": "2 39634  98.1803 345.3372 0001240  89.7359 270.3982 14.59203137621848"}}, "geometry": {"type": "Point", "coordinates": [-15.504042623748884, 9.070437798631584]}}, {"type": "Feature", "properties": {"norad_id": 39731, "name": "KAZEOSAT 1", "group": "resource", "lat": 9.333981976162095, "lon": 51.14327167538823, "alt_km": 753.3488117261704, "timestamp": "2025-12-06T11:28:10.686241+00:00", "meta": {"OBJECT_NAME": "KAZEOSAT 1", "OBJECT_ID": "2014-024A", "EPOCH": "2025-12-05T22:06:14.214240", "MEAN_MOTION": 14.42056438, "ECCENTRICITY": 0.00010678, "INCLINATION": 98.3443, "RA_OF_ASC_NODE": 51.9812, "ARG_OF_PERICENTER": 99.5046, "MEAN_ANOMALY": 260.6265, "EPHEMERIS_TYPE": 0, "CLASSIFICATION_TYPE": "U", "NORAD_CAT_ID": 39731, "ELEMENT_SET_NO": 999, "REV_AT_EPOCH": 61070, "BSTAR": 0.00016116986, "MEAN_MOTION_DOT": 4.86e-06, "MEAN_MOTION_DDOT": 0}, "tle": {"line1": "1 39731U 14024A   25339.92099785  .00000486  00000+0  16117-3 0  9991", "line2": "2 39731  98.3443  51.9812 0001067  99.5046 260.6265 14.42056438610707"}}, "geometry": {"type": "Point", "coordinates": [51.14327167538823, 9.333981976162095]}}, {"type": "Feature", "properties": {"norad_id": 39766, "name": "ALOS-2", "group": "resource", "lat": 47.37929448076676, "lon": -95.88114729875868, "alt_km": 625.8914550877926, "timestamp": "2025-12-06T11:28:10.686252+00:00", "meta": {"OBJECT_NAME": "ALOS-2", "OBJECT_ID": "2014-029A", "EPOCH": "2025-12-05T21:53:23.283456", "MEAN_MOTION": 14.7946082, "ECCENTRICITY": 0.00015101, "INCLINATION": 97.9237, "RA_OF_ASC_NODE": 74.8558, "ARG_OF_PERICENTER": 106.3059, "MEAN_ANOMALY": 253.8319, "EPHEMERIS_TYPE": 0, "CLASSIFICATION_TYPE": "U", "NORAD_CAT_ID": 39766, "ELEMENT_SET_NO": 999, "REV_AT_EPOCH": 62300, "BSTAR": 0.00046040631, "MEAN_MOTION_DOT": 3.388e-05, "MEAN_MOTION_DDOT": 0}, "tle": {"line1": "1 39766U 14029A   25339.91207504  .00003388  00000+0  46041-3 0  9996", "line2": "2 39766  97.9237  74.8558 0001510 106.3059 253.8319 14.79460820623001"}}, "geometry": {"type": "Point", "coordinates": [-95.88114729875868, 47.37929448076676]}}, {"type": "Feature", "properties": {"norad_id": 40010, "name": "KAZEOSAT 2", "group": "resource", "lat": -81.43378055312162, "lon": -113.16919200392675, "alt_km": 616.7685951810072, "timestamp": "2025-12-06T11:28:10.686262+00:00", "meta": {"OBJECT_NAME": "KAZEOSAT 2", "OBJECT_ID": "2014-033A", "EPOCH": "2025-12-05T21:18:11.587968", "MEAN_MOTION": 14.85150652, "ECCENTRICITY": 0.00073555, "INCLINATION": 97.551, "RA_OF_ASC_NODE": 184.5559, "ARG_OF_PERICENTER": 232.0447, "MEAN_ANOMALY": 128.0105, "EPHEMERIS_TYPE": 0, "CLASSIFICATION_TYPE": "U", "NORAD_CAT_ID": 40010, "ELEMENT_SET_NO": 999, "REV_AT_EPOCH": 62026, "BSTAR": 0.00017228965, "MEAN_MOTION_DOT": 1.425e-05, "MEAN_MOTION_DDOT": 0}, "tle": {"line1": "1 40010U 14033A   25339.88763412  .00001425  00000+0  17229-3 0  9992", "line2": "2 40010  97.5510 184.5559 0007355 232.0447 128.0105 14.85150652620263"}}, "geometry": {"type": "Point", "coordinates": [-113.16919200392675, -81.43378055312162]}}, {"type": "Feature", "properties": {"norad_id": 40011, "name": "HODOYOSHI-4", "group": "resource", "lat": -49.3389884288535, "lon": 178.54254003590225, "alt_km": 612.2778603432926, "timestamp": "2025-12-06T11:28:10.686273+00:00", "meta": {"OBJECT_NAME": "HODOYOSHI-4", "OBJECT_ID": "2014-033B", "EPOCH": "2025-12-05T22:46:40.921536", "MEAN_MOTION": 14.87443141, "ECCENTRICITY": 0.00227712, "INCLINATION": 97.5414, "RA_OF_ASC_NODE": 169.1678, "ARG_OF_PERICENTER": 223.7439, "MEAN_ANOMALY": 136.1975, "EPHEMERIS_TYPE": 0, "CLASSIFICATION_TYPE": "U", "NORAD_CAT_ID": 40011, "ELEMENT_SET_NO": 999, "REV_AT_EPOCH": 62007, "BSTAR": 0.000417192, "MEAN_MOTION_DOT": 3.743e-05, "MEAN_MOTION_DDOT": 0}, "tle": {"line1": "1 40011U 14033B   25339.94908474  .00003743  00000+0  41719-3 0  9995", "line2": "2 40011  97.5414 169.1678 0022771 223.7439 136.1975 14.87443141620079"}}, "geometry": {"type": "Point", "coordinates": [178.54254003590225, -49.3389884288535]}}, {"type": "Feature", "properties": {"norad_id": 40013, "name": "DEIMOS-2", "group": "resource", "lat": -16.433032294667743, "lon": -141.25692477446964, "alt_km": 593.9282780223157, "timestamp": "2025-12-06T11:28:10.686283+00:00", "meta": {"OBJECT_NAME": "DEIMOS-2", "OBJECT_ID": "2014-033D", "EPOCH": "2025-12-05T22:40:30.462528", "MEAN_MOTION": 14.92926208, "ECCENTRICITY": 9.699e-05, "INCLINATION": 97.6072, "RA_OF_ASC_NODE": 215.9686, "ARG_OF_PERICENTER": 93.8494, "MEAN_ANOMALY": 266.2837, "EPHEMERIS_TYPE": 0, "CLASSIFICATION_TYPE": "U", "NORAD_CAT_ID": 40013, "ELEMENT_SET_NO": 999, "REV_AT_EPOCH": 60888, "BSTAR": 0.00045276166, "MEAN_MOTION_DOT": 4.644e-05, "MEAN_MOTION_DDOT": 0}, "tle": {"line1": "1 40013U 14033D   25339.94479702  .00004644  00000+0  45276-3 0  9997", "line2": "2 40013  97.6072 215.9686 0000969  93.8494 266.2837 14.92926208608886"}}, "geometry": {"type": "Point", "coordinates": [-141.25692477446964, -16.433032294667743]}}, {"type": "Feature", "properties": {"norad_id": 40015, "name": "HODOYOSHI-3", "group": "resource", "lat": -63.41893710183951, "lon": 162.10338863822585, "alt_km": 601.514592742913, "timestamp": "2025-12-06T11:28:10.686293+00:00", "meta": {"OBJECT_NAME": "HODOYOSHI-3", "OBJECT_ID": "2014-033F", "EPOCH": "2025-12-05T22:49:09.678144", "MEAN_MOTION": 14.84769754, "ECCENTRICITY": 0.00318333, "INCLINATION": 97.6195, "RA_OF_ASC_NODE": 146.0813, "ARG_OF_PERICENTER": 271.1821, "MEAN_ANOMALY": 88.5748, "EPHEMERIS_TYPE": 0, "CLASSIFICATION_TYPE": "U", "NORAD_CAT_ID": 40015, "ELEMENT_SET_NO": 999, "REV_AT_EPOCH": 61894, "BSTAR": 0.00039312285, "MEAN_MOTION_DOT": 3.312e-05, "MEAN_MOTION_DDOT": 0}, "tle": {"line1": "1 40015U 14033F   25339.95080646  .00003312  00000+0  39312-3 0  9990", "line2": "2 40015  97.6195 146.0813 0031833 271.1821  88.5748 14.84769754618945"}}, "geometry": {"type": "Point", "coordinates": [162.10338863822585, -63.41893710183951]}}, {"type": "Feature", "properties": {"norad_id": 40053, "name": "SPOT 7", "group": "resource", "lat": -19.52073311775493, "lon": -140.19357461281047, "alt_km": 696.2854125760832, "timestamp": "2025-12-06T11:28:10.686304+00:00", "meta": {"OBJECT_NAME": "SPOT 7", "OBJECT_ID": "2014-034A", "EPOCH": "2025-12-05T21:24:24.361632", "MEAN_MOTION": 14.60720151, "ECCENTRICITY": 0.00015296, "INCLINATION": 98.0916, "RA_OF_ASC_NODE": 42.125, "ARG_OF_PERICENTER": 95.4577, "MEAN_ANOMALY": 264.6798, "EPHEMERIS_TYPE": 0, "CLASSIFICATION_TYPE": "U", "NORAD_CAT_ID": 40053, "ELEMENT_SET_NO": 999, "REV_AT_EPOCH": 60891, "BSTAR": 0.0002329125, "MEAN_MOTION_DOT": 1.09e-05, "MEAN_MOTION_DDOT": 0}, "tle": {"line1": "1 40053U 14034A   25339.89194863  .00001090  00000+0  23291-3 0  9993", "line2": "2 40053  98.0916  42.1250 0001529  95.4577 264.6798 14.60720151608918"}}, "geometry": {"type": "Point", "coordinates": [-140.19357461281047, -19.52073311775493]}}, {"type": "Feature", "properties": {"norad_id": 40072, "name": "SKYSAT-B", "group": "resource", "lat": -73.86577584441626, "lon": 73.3001605354247, "alt_km": 613.5091283982301, "timestamp": "2025-12-06T11:28:10.686314+00:00", "meta": {"OBJECT_NAME": "SKYSAT-B", "OBJECT_ID": "2014-037D", "EPOCH": "2025-12-05T21:24:16.391232", "MEAN_MOTION": 14.87287242, "ECCENTRICITY": 0.00055907, "INCLINATION": 98.36, "RA_OF_ASC_NODE": 283.2366, "ARG_OF_PERICENTER": 170.8908, "MEAN_ANOMALY": 189.2409, "EPHEMERIS_TYPE": 0, "CLASSIFICATION_TYPE": "U", "NORAD_CAT_ID": 40072, "ELEMENT_SET_NO": 999, "REV_AT_EPOCH": 61722, "BSTAR": 0.00033723647, "MEAN_MOTION_DOT": 2.982e-05, "MEAN_MOTION_DDOT": 0}, "tle": {"line1": "1 40072U 14037D   25339.89185638  .00002982  00000+0  33724-3 0  9990", "line2": "2 40072  98.3600 283.2366 0005590 170.8908 189.2409 14.87287242617229"}}, "geometry": {"type": "Point", "coordinates": [73.3001605354247, -73.86577584441626]}}]}